NAVSTAR 77 (USA 289)    
1 43873U 18109A   24029.98744889  .00000006  00000+0  00000+0 0  9992
2 43873  55.2436 126.5298 0028574 192.9800 169.0781  2.00573543 37595
